IRIDIUM 166             
1 43570U 18061B   24227.56370764  .00000540  00000+0  18567-3 0  9998
2 43570  86.4016 337.4170 0002368  92.1358 268.0109 14.34221136317136
IRIDIUM 158             
1 43571U 18061C   24226.55525605 -.00000015  00000+0 -12338-4 0  9993
2 43571  86.4018 337.8484 0001896  92.2128 267.9285 14.34220218316954
IRIDIUM 165             
1 43572U 18061D   24227.55737904  .00000886  00000+0  30917-3 0  9998
2 43572  86.4016 337.4634 0002196  95.7096 264.4351 14.34217181317123
IRIDIUM 155             
1 43573U 18061E   24226.82163808  .00001009  00000+0  35313-3 0  9997
2 43573  86.4005 337.6718 0002301  94.2063 265.9396 14.34221976316999
IRIDIUM 154             
1 43574U 18061F   24227.57006851 -.00000388  00000+0 -14550-3 0  9996
2 43574  86.4016 337.4614 0002018  98.4773 261.6652 14.34219431317143
IRIDIUM 163             
1 43575U 18061G   24226.57427567  .00000277  00000+0  91698-4 0  9991
2 43575  86.4013 337.8132 0002303  95.3734 264.7725 14.34216267316979
IRIDIUM 156             
1 43576U 18061H   24226.75821592  .00000325  00000+0  10889-3 0  9994
2 43576  86.4017 337.7433 0002005  94.3035 265.8390 14.34220811316991
IRIDIUM 164             
1 43577U 18061J   24227.22756487  .00001226  00000+0  43072-3 0  9999
2 43577  86.4015 337.5766 0002110 102.7093 257.4338 14.34218964317101
